{"epoch":1784799577,"count":18318,"objects":[{"id":"42969","name":"SENTINEL 5P","type":"PAYLOAD","l1":"1 42969U 17064A   26203.30384108  .00000033  00000-0  36599-4 0  9990","l2":"2 42969  98.7929 145.1869 0001192  92.0923 268.0389 14.19524130454546"}]}